{
  "type": "FeatureCollection",
  "features": [
    {
      "type": "Feature",
      "properties": {
        "norad_id": 35987,
        "name": "COSMOS 2251 DEB",
        "group": "cosmos-2251-debris",
        "lat": -33.92292687601069,
        "lon": 158.69731752610915,
        "alt_km": 771.2357593320376,
        "timestamp": "2025-12-12T05:47:29.168390+00:00",
        "meta_object_name": "COSMOS 2251 DEB",
        "meta_object_id": "1993-036AWD",
        "meta_epoch": "2025-12-11T05:30:31.150080",
        "meta_mean_motion": 14.43110132,
        "meta_eccentricity": 0.00459363,
        "meta_inclination": 74.0001,
        "meta_ra_of_asc_node": 329.4532,
        "meta_arg_of_pericenter": 95.6067,
        "meta_mean_anomaly": 265.033,
        "meta_ephemeris_type": 0,
        "meta_classification_type": "U",
        "meta_norad_cat_id": 35987,
        "meta_element_set_no": 999,
        "meta_rev_at_epoch": 61043,
        "meta_bstar": 0.0014697546,
        "meta_mean_motion_dot": 4.973e-05,
        "meta_mean_motion_ddot": 0,
        "tle_line1": "1 35987U 93036AWD 25345.22952720  .00004973  00000+0  14698-2 0  9993",
        "tle_line2": "2 35987  74.0001 329.4532 0045936  95.6067 265.0330 14.43110132610437"
      },
      "geometry": {
        "type": "Point",
        "coordinates": [
          158.69731752610915,
          -33.92292687601069
        ]
      }
    },
    {
      "type": "Feature",
      "properties": {
        "norad_id": 35989,
        "name": "COSMOS 2251 DEB",
        "group": "cosmos-2251-debris",
        "lat": -74.02169041885354,
        "lon": -163.53385181937807,
        "alt_km": 776.7002662684581,
        "timestamp": "2025-12-12T05:47:29.168400+00:00",
        "meta_object_name": "COSMOS 2251 DEB",
        "meta_object_id": "1993-036AWF",
        "meta_epoch": "2025-12-10T12:26:20.084064",
        "meta_mean_motion": 14.37097303,
        "meta_eccentricity": 0.0021915,
        "meta_inclination": 74.0383,
        "meta_ra_of_asc_node": 287.9166,
        "meta_arg_of_pericenter": 10.2145,
        "meta_mean_anomaly": 349.9449,
        "meta_ephemeris_type": 0,
        "meta_classification_type": "U",
        "meta_norad_cat_id": 35989,
        "meta_element_set_no": 999,
        "meta_rev_at_epoch": 87147,
        "meta_bstar": 0.00040745,
        "meta_mean_motion_dot": 1.187e-05,
        "meta_mean_motion_ddot": 0,
        "tle_line1": "1 35989U 93036AWF 25344.51828801  .00001187  00000+0  40745-3 0  9995",
        "tle_line2": "2 35989  74.0383 287.9166 0021915  10.2145 349.9449 14.37097303871477"
      },
      "geometry": {
        "type": "Point",
        "coordinates": [
          -163.53385181937807,
          -74.02169041885354
        ]
      }
    },
    {
      "type": "Feature",
      "properties": {
        "norad_id": 35993,
        "name": "COSMOS 2251 DEB",
        "group": "cosmos-2251-debris",
        "lat": 71.99906990542702,
        "lon": 91.85649855951164,
        "alt_km": 660.2488068522425,
        "timestamp": "2025-12-12T05:47:29.168410+00:00",
        "meta_object_name": "COSMOS 2251 DEB",
        "meta_object_id": "1993-036AWK",
        "meta_epoch": "2025-12-09T16:42:55.834848",
        "meta_mean_motion": 14.65265094,
        "meta_eccentricity": 0.00290722,
        "meta_inclination": 74.0153,
        "meta_ra_of_asc_node": 338.6616,
        "meta_arg_of_pericenter": 169.2926,
        "meta_mean_anomaly": 190.8869,
        "meta_ephemeris_type": 0,
        "meta_classification_type": "U",
        "meta_norad_cat_id": 35993,
        "meta_element_set_no": 999,
        "meta_rev_at_epoch": 60398,
        "meta_bstar": 0.0011875212,
        "meta_mean_motion_dot": 6.416e-05,
        "meta_mean_motion_ddot": 0,
        "tle_line1": "1 35993U 93036AWK 25343.69647957  .00006416  00000+0  11875-2 0  9990",
        "tle_line2": "2 35993  74.0153 338.6616 0029072 169.2926 190.8869 14.65265094603988"
      },
      "geometry": {
        "type": "Point",
        "coordinates": [
          91.85649855951164,
          71.99906990542702
        ]
      }
    },
    {
      "type": "Feature",
      "properties": {
        "norad_id": 35996,
        "name": "COSMOS 2251 DEB",
        "group": "cosmos-2251-debris",
        "lat": 68.5986335993147,
        "lon": -122.55353086176325,
        "alt_km": 532.6462749881412,
        "timestamp": "2025-12-12T05:47:29.168420+00:00",
        "meta_object_name": "COSMOS 2251 DEB",
        "meta_object_id": "1993-036AWN",
        "meta_epoch": "2025-12-11T00:41:09.521088",
        "meta_mean_motion": 15.0906793,
        "meta_eccentricity": 0.00884253,
        "meta_inclination": 74.0157,
        "meta_ra_of_asc_node": 106.9511,
        "meta_arg_of_pericenter": 198.4339,
        "meta_mean_anomaly": 161.3644,
        "meta_ephemeris_type": 0,
        "meta_classification_type": "U",
        "meta_norad_cat_id": 35996,
        "meta_element_set_no": 999,
        "meta_rev_at_epoch": 72300,
        "meta_bstar": 0.0011651351,
        "meta_mean_motion_dot": 0.00020245,
        "meta_mean_motion_ddot": 0,
        "tle_line1": "1 35996U 93036AWN 25345.02858242  .00020245  00000+0  11651-2 0  9991",
        "tle_line2": "2 35996  74.0157 106.9511 0088425 198.4339 161.3644 15.09067930723002"
      },
      "geometry": {
        "type": "Point",
        "coordinates": [
          -122.55353086176325,
          68.5986335993147
        ]
      }
    },
    {
      "type": "Feature",
      "properties": {
        "norad_id": 35997,
        "name": "COSMOS 2251 DEB",
        "group": "cosmos-2251-debris",
        "lat": -56.2203099150313,
        "lon": 162.90873718752655,
        "alt_km": 719.1347410123471,
        "timestamp": "2025-12-12T05:47:29.168430+00:00",
        "meta_object_name": "COSMOS 2251 DEB",
        "meta_object_id": "1993-036AWP",
        "meta_epoch": "2025-12-09T20:09:48.839904",
        "meta_mean_motion": 14.51292272,
        "meta_eccentricity": 0.00157365,
        "meta_inclination": 74.043,
        "meta_ra_of_asc_node": 192.7469,
        "meta_arg_of_pericenter": 268.5156,
        "meta_mean_anomaly": 91.4203,
        "meta_ephemeris_type": 0,
        "meta_classification_type": "U",
        "meta_norad_cat_id": 35997,
        "meta_element_set_no": 999,
        "meta_rev_at_epoch": 70842,
        "meta_bstar": 0.00093479882,
        "meta_mean_motion_dot": 3.7e-05,
        "meta_mean_motion_ddot": 0,
        "tle_line1": "1 35997U 93036AWP 25343.84014861  .00003700  00000+0  93480-3 0  9999",
        "tle_line2": "2 35997  74.0430 192.7469 0015736 268.5156  91.4203 14.51292272708421"
      },
      "geometry": {
        "type": "Point",
        "coordinates": [
          162.90873718752655,
          -56.2203099150313
        ]
      }
    },
    {
      "type": "Feature",
      "properties": {
        "norad_id": 36005,
        "name": "COSMOS 2251 DEB",
        "group": "cosmos-2251-debris",
        "lat": -19.904451090316574,
        "lon": 88.9862656971811,
        "alt_km": 751.7785360574044,
        "timestamp": "2025-12-12T05:47:29.168440+00:00",
        "meta_object_name": "COSMOS 2251 DEB",
        "meta_object_id": "1993-036AWX",
        "meta_epoch": "2025-12-10T17:23:32.272512",
        "meta_mean_motion": 14.47353034,
        "meta_eccentricity": 0.00619888,
        "meta_inclination": 74.0266,
        "meta_ra_of_asc_node": 97.7757,
        "meta_arg_of_pericenter": 235.5382,
        "meta_mean_anomaly": 123.9911,
        "meta_ephemeris_type": 0,
        "meta_classification_type": "U",
        "meta_norad_cat_id": 36005,
        "meta_element_set_no": 999,
        "meta_rev_at_epoch": 87555,
        "meta_bstar": 0.00035630183,
        "meta_mean_motion_dot": 1.308e-05,
        "meta_mean_motion_ddot": 0,
        "tle_line1": "1 36005U 93036AWX 25344.72467908  .00001308  00000+0  35630-3 0  9997",
        "tle_line2": "2 36005  74.0266  97.7757 0061988 235.5382 123.9911 14.47353034875553"
      },
      "geometry": {
        "type": "Point",
        "coordinates": [
          88.9862656971811,
          -19.904451090316574
        ]
      }
    },
    {
      "type": "Feature",
      "properties": {
        "norad_id": 36045,
        "name": "COSMOS 2251 DEB",
        "group": "cosmos-2251-debris",
        "lat": -6.218915693767673,
        "lon": 58.25016714257236,
        "alt_km": 659.1734041301379,
        "timestamp": "2025-12-12T05:47:29.168450+00:00",
        "meta_object_name": "COSMOS 2251 DEB",
        "meta_object_id": "1993-036AXG",
        "meta_epoch": "2025-12-11T13:29:08.197152",
        "meta_mean_motion": 14.69806465,
        "meta_eccentricity": 0.00482484,
        "meta_inclination": 73.7636,
        "meta_ra_of_asc_node": 61.4081,
        "meta_arg_of_pericenter": 75.4727,
        "meta_mean_anomaly": 285.1788,
        "meta_ephemeris_type": 0,
        "meta_classification_type": "U",
        "meta_norad_cat_id": 36045,
        "meta_element_set_no": 999,
        "meta_rev_at_epoch": 8371,
        "meta_bstar": 0.0031629771,
        "meta_mean_motion_dot": 0.00019249,
        "meta_mean_motion_ddot": 0,
        "tle_line1": "1 36045U 93036AXG 25345.56190043  .00019249  00000+0  31630-2 0  9995",
        "tle_line2": "2 36045  73.7636  61.4081 0048248  75.4727 285.1788 14.69806465 83717"
      },
      "geometry": {
        "type": "Point",
        "coordinates": [
          58.25016714257236,
          -6.218915693767673
        ]
      }
    }
  ]
}